COSMOS 2361 [-]         
1 25590U 98076A   22282.55224891  .00000088  00000+0  78922-4 0  9990
2 25590  82.9305 121.8344 0030293 250.7236 166.8035 13.73029610192198
COSMOS 2378 [-]         
1 26818U 01023A   22282.22104498  .00000622  00000+0  64534-3 0  9991
2 26818  82.9264 139.9159 0032581 196.1259 163.8934 13.73977806 69939
COSMOS 2389 [-]         
1 27436U 02026A   22282.53579066  .00000061  00000+0  47213-4 0  9996
2 27436  82.9474  85.5800 0047479  58.3136   3.4307 13.74983443 22042
COSMOS 2398 [-]         
1 27818U 03023A   22282.30963144  .00000080  00000+0  70484-4 0  9994
2 27818  82.9491  47.7053 0032588  95.0429 265.4456 13.72218748969001
COSMOS 2407 [+]         
1 28380U 04028A   22282.29747410  .00000552  00000+0  54854-3 0  9995
2 28380  82.9660 352.1478 0040196  60.4875 300.0317 13.76121971914819
COSMOS 2414 [+]         
1 28521U 05002A   22280.22833380 -.00000005  00000+0 -16909-4 0  9993
2 28521  82.9533 343.7334 0039429 213.7830 146.0822 13.87666838897056
COSMOS 2429 [-]         
1 32052U 07038A   22282.54972031  .00000079  00000+0  65853-4 0  9993
2 32052  82.9767 118.2620 0039262  37.2083 323.1782 13.74970994756588
COSMOS 2454 [-]         
1 35635U 09039A   22280.25725981  .00000056  00000+0  32786-4 0  9996
2 35635  82.9584 329.8517 0019964 154.8128 205.4046 13.89696009670222
COSMOS 2463 [+]         
1 36519U 10017A   22282.41279900  .00000077  00000+0  69266-4 0  9997
2 36519  82.9620 159.1214 0034912 267.0065 266.6691 13.71481355623310
